[{"OBJECT_NAME":"SAOCOM 1A","OBJECT_ID":"2018-076A","EPOCH":"2026-03-09T23:06:42.673824","MEAN_MOTION":14.82173643,"ECCENTRICITY":0.00013387,"INCLINATION":97.8895,"RA_OF_ASC_NODE":257.1316,"ARG_OF_PERICENTER":83.6952,"MEAN_ANOMALY":276.4413,"EPHEMERIS_TYPE":0,"CLASSIFICATION_TYPE":"U","NORAD_CAT_ID":43641,"ELEMENT_SET_NO":999,"REV_AT_EPOCH":40140,"BSTAR":0.0001704308,"MEAN_MOTION_DOT":1.305e-5,"MEAN_MOTION_DDOT":0},{"OBJECT_NAME":"TITAN 3C TRANSTAGE DEB","OBJECT_ID":"1965-082D","EPOCH":"2026-03-09T01:34:04.697760","MEAN_MOTION":14.84332729,"ECCENTRICITY":0.0022925,"INCLINATION":32.093,"RA_OF_ASC_NODE":79.0583,"ARG_OF_PERICENTER":117.8711,"MEAN_ANOMALY":242.4265,"EPHEMERIS_TYPE":0,"CLASSIFICATION_TYPE":"U","NORAD_CAT_ID":1642,"ELEMENT_SET_NO":999,"REV_AT_EPOCH":22269,"BSTAR":0.00015568219,"MEAN_MOTION_DOT":1.385e-5,"MEAN_MOTION_DDOT":0}]
